[{"OBJECT_NAME":"FENGYUN 1C DEB","OBJECT_ID":"1999-025ARL","EPOCH":"2026-04-25T12:54:14.578272","MEAN_MOTION":14.03971239,"ECCENTRICITY":0.00675097,"INCLINATION":98.759,"RA_OF_ASC_NODE":135.6226,"ARG_OF_PERICENTER":286.9148,"MEAN_ANOMALY":225.6931,"EPHEMERIS_TYPE":0,"CLASSIFICATION_TYPE":"U","NORAD_CAT_ID":30702,"ELEMENT_SET_NO":999,"REV_AT_EPOCH":98039,"BSTAR":0.00042076106,"MEAN_MOTION_DOT":6.35e-6,"MEAN_MOTION_DDOT":0},{"OBJECT_NAME":"FENGYUN 1C DEB","OBJECT_ID":"1999-025ARM","EPOCH":"2026-04-26T11:49:09.819264","MEAN_MOTION":14.19978908,"ECCENTRICITY":0.0114707,"INCLINATION":99.1541,"RA_OF_ASC_NODE":110.9869,"ARG_OF_PERICENTER":268.6943,"MEAN_ANOMALY":247.0921,"EPHEMERIS_TYPE":0,"CLASSIFICATION_TYPE":"U","NORAD_CAT_ID":30703,"ELEMENT_SET_NO":999,"REV_AT_EPOCH":98452,"BSTAR":0.00089367,"MEAN_MOTION_DOT":1.981e-5,"MEAN_MOTION_DDOT":0},{"OBJECT_NAME":"FENGYUN 1C DEB","OBJECT_ID":"1999-025ARN","EPOCH":"2026-04-25T23:00:12.167424","MEAN_MOTION":14.02152681,"ECCENTRICITY":0.00823002,"INCLINATION":98.8762,"RA_OF_ASC_NODE":116.1822,"ARG_OF_PERICENTER":86.0032,"MEAN_ANOMALY":341.1686,"EPHEMERIS_TYPE":0,"CLASSIFICATION_TYPE":"U","NORAD_CAT_ID":30704,"ELEMENT_SET_NO":999,"REV_AT_EPOCH":97992,"BSTAR":0.0001853268,"MEAN_MOTION_DOT":2.5e-6,"MEAN_MOTION_DDOT":0},{"OBJECT_NAME":"FENGYUN 1C DEB","OBJECT_ID":"1999-025ARP","EPOCH":"2026-04-26T09:13:20.051040","MEAN_MOTION":13.82098657,"ECCENTRICITY":0.0194549,"INCLINATION":102.1848,"RA_OF_ASC_NODE":264.3665,"ARG_OF_PERICENTER":322.9547,"MEAN_ANOMALY":61.4844,"EPHEMERIS_TYPE":0,"CLASSIFICATION_TYPE":"U","NORAD_CAT_ID":30705,"ELEMENT_SET_NO":999,"REV_AT_EPOCH":95869,"BSTAR":0.0014924,"MEAN_MOTION_DOT":1.787e-5,"MEAN_MOTION_DDOT":0},{"OBJECT_NAME":"FENGYUN 1C DEB","OBJECT_ID":"1999-025ARQ","EPOCH":"2026-04-25T15:57:14.787936","MEAN_MOTION":14.26997538,"ECCENTRICITY":0.00274236,"INCLINATION":99.0578,"RA_OF_ASC_NODE":19.9843,"ARG_OF_PERICENTER":102.4383,"MEAN_ANOMALY":257.9867,"EPHEMERIS_TYPE":0,"CLASSIFICATION_TYPE":"U","NORAD_CAT_ID":30706,"ELEMENT_SET_NO":999,"REV_AT_EPOCH":99537,"BSTAR":0.00055260998,"MEAN_MOTION_DOT":1.303e-5,"MEAN_MOTION_DDOT":0},{"OBJECT_NAME":"FENGYUN 1C DEB","OBJECT_ID":"1999-025ARR","EPOCH":"2026-04-25T11:03:27.679392","MEAN_MOTION":14.27622597,"ECCENTRICITY":0.00272508,"INCLINATION":99.398,"RA_OF_ASC_NODE":184.8519,"ARG_OF_PERICENTER":52.2987,"MEAN_ANOMALY":69.7493,"EPHEMERIS_TYPE":0,"CLASSIFICATION_TYPE":"U","NORAD_CAT_ID":30707,"ELEMENT_SET_NO":999,"REV_AT_EPOCH":98710,"BSTAR":0.0011025838,"MEAN_MOTION_DOT":2.677e-5,"MEAN_MOTION_DDOT":0},{"OBJECT_NAME":"FENGYUN 1C DEB","OBJECT_ID":"1999-025ARS","EPOCH":"2026-04-26T12:24:49.912704","MEAN_MOTION":14.12263001,"ECCENTRICITY":0.0008552,"INCLINATION":98.6845,"RA_OF_ASC_NODE":131.0227,"ARG_OF_PERICENTER":169.3529,"MEAN_ANOMALY":342.9029,"EPHEMERIS_TYPE":0,"CLASSIFICATION_TYPE":"U","NORAD_CAT_ID":30708,"ELEMENT_SET_NO":999,"REV_AT_EPOCH":98738,"BSTAR":0.00013305,"MEAN_MOTION_DOT":2.02e-6,"MEAN_MOTION_DDOT":0},{"OBJECT_NAME":"FENGYUN 1C DEB","OBJECT_ID":"1999-025ART","EPOCH":"2026-04-26T09:46:43.096800","MEAN_MOTION":14.18848832,"ECCENTRICITY":0.0079629,"INCLINATION":99.1541,"RA_OF_ASC_NODE":103.4896,"ARG_OF_PERICENTER":247.08,"MEAN_ANOMALY":112.1956,"EPHEMERIS_TYPE":0,"CLASSIFICATION_TYPE":"U","NORAD_CAT_ID":30709,"ELEMENT_SET_NO":999,"REV_AT_EPOCH":97905,"BSTAR":0.0019634,"MEAN_MOTION_DOT":4.171e-5,"MEAN_MOTION_DDOT":0},{"OBJECT_NAME":"FENGYUN 1C DEB","OBJECT_ID":"1999-025ARU","EPOCH":"2026-04-25T14:59:54.053952","MEAN_MOTION":13.95388805,"ECCENTRICITY":0.02215343,"INCLINATION":102.7474,"RA_OF_ASC_NODE":60.3581,"ARG_OF_PERICENTER":126.7147,"MEAN_ANOMALY":49.0935,"EPHEMERIS_TYPE":0,"CLASSIFICATION_TYPE":"U","NORAD_CAT_ID":30710,"ELEMENT_SET_NO":999,"REV_AT_EPOCH":96655,"BSTAR":0.0018310381,"MEAN_MOTION_DOT":2.976e-5,"MEAN_MOTION_DDOT":0},{"OBJECT_NAME":"FENGYUN 1C DEB","OBJECT_ID":"1999-025ARY","EPOCH":"2026-04-25T19:10:23.174976","MEAN_MOTION":14.03531097,"ECCENTRICITY":0.00647824,"INCLINATION":98.8164,"RA_OF_ASC_NODE":165.3917,"ARG_OF_PERICENTER":268.5706,"MEAN_ANOMALY":156.5728,"EPHEMERIS_TYPE":0,"CLASSIFICATION_TYPE":"U","NORAD_CAT_ID":30714,"ELEMENT_SET_NO":999,"REV_AT_EPOCH":97873,"BSTAR":0.00048504411,"MEAN_MOTION_DOT":7.31e-6,"MEAN_MOTION_DDOT":0},{"OBJECT_NAME":"FENGYUN 1C DEB","OBJECT_ID":"1999-025ARZ","EPOCH":"2026-04-25T18:14:37.364352","MEAN_MOTION":14.15573157,"ECCENTRICITY":0.00679037,"INCLINATION":98.9619,"RA_OF_ASC_NODE":190.6615,"ARG_OF_PERICENTER":147.6106,"MEAN_ANOMALY":212.9263,"EPHEMERIS_TYPE":0,"CLASSIFICATION_TYPE":"U","NORAD_CAT_ID":30715,"ELEMENT_SET_NO":999,"REV_AT_EPOCH":98077,"BSTAR":0.0012944342,"MEAN_MOTION_DOT":2.546e-5,"MEAN_MOTION_DDOT":0},{"OBJECT_NAME":"FENGYUN 1C DEB","OBJECT_ID":"1999-025ASA","EPOCH":"2026-04-26T12:32:27.907872","MEAN_MOTION":14.88539765,"ECCENTRICITY":0.0017629,"INCLINATION":98.8704,"RA_OF_ASC_NODE":319.5893,"ARG_OF_PERICENTER":23.825,"MEAN_ANOMALY":8.934,"EPHEMERIS_TYPE":0,"CLASSIFICATION_TYPE":"U","NORAD_CAT_ID":30716,"ELEMENT_SET_NO":999,"REV_AT_EPOCH":99823,"BSTAR":0.0038845,"MEAN_MOTION_DOT":0.00036344,"MEAN_MOTION_DDOT":0},{"OBJECT_NAME":"FENGYUN 1C DEB","OBJECT_ID":"1999-025ASB","EPOCH":"2026-04-25T16:48:15.834528","MEAN_MOTION":14.21421147,"ECCENTRICITY":0.0046383,"INCLINATION":99.0048,"RA_OF_ASC_NODE":194.1072,"ARG_OF_PERICENTER":233.252,"MEAN_ANOMALY":126.4393,"EPHEMERIS_TYPE":0,"CLASSIFICATION_TYPE":"U","NORAD_CAT_ID":30717,"ELEMENT_SET_NO":999,"REV_AT_EPOCH":98439,"BSTAR":0.0010770503,"MEAN_MOTION_DOT":2.333e-5,"MEAN_MOTION_DDOT":0},{"OBJECT_NAME":"FENGYUN 1C DEB","OBJECT_ID":"1999-025ASC","EPOCH":"2026-04-25T16:17:27.959712","MEAN_MOTION":14.25284753,"ECCENTRICITY":0.00585035,"INCLINATION":98.8804,"RA_OF_ASC_NODE":202.6871,"ARG_OF_PERICENTER":130.5952,"MEAN_ANOMALY":230.0338,"EPHEMERIS_TYPE":0,"CLASSIFICATION_TYPE":"U","NORAD_CAT_ID":30718,"ELEMENT_SET_NO":999,"REV_AT_EPOCH":98681,"BSTAR":0.0013784064,"MEAN_MOTION_DOT":3.259e-5,"MEAN_MOTION_DDOT":0},{"OBJECT_NAME":"FENGYUN 1C DEB","OBJECT_ID":"1999-025ASD","EPOCH":"2026-04-26T09:13:28.824960","MEAN_MOTION":14.64417696,"ECCENTRICITY":0.0011695,"INCLINATION":98.8917,"RA_OF_ASC_NODE":273.2456,"ARG_OF_PERICENTER":140.7441,"MEAN_ANOMALY":219.4609,"EPHEMERIS_TYPE":0,"CLASSIFICATION_TYPE":"U","NORAD_CAT_ID":30719,"ELEMENT_SET_NO":999,"REV_AT_EPOCH":99416,"BSTAR":0.0036724,"MEAN_MOTION_DOT":0.00019442,"MEAN_MOTION_DDOT":0},{"OBJECT_NAME":"FENGYUN 1C DEB","OBJECT_ID":"1999-025ASE","EPOCH":"2026-04-25T06:47:42.762912","MEAN_MOTION":14.29654963,"ECCENTRICITY":0.0030606,"INCLINATION":99.0454,"RA_OF_ASC_NODE":298.7588,"ARG_OF_PERICENTER":303.0301,"MEAN_ANOMALY":235.664,"EPHEMERIS_TYPE":0,"CLASSIFICATION_TYPE":"U","NORAD_CAT_ID":30720,"ELEMENT_SET_NO":999,"REV_AT_EPOCH":99396,"BSTAR":0.00060519,"MEAN_MOTION_DOT":1.511e-5,"MEAN_MOTION_DDOT":0}]
