FENGYUN 1C DEB          
1 30702U 99025ARL 26115.53766873  .00000635  00000+0  42076-3 0  9992
2 30702  98.7590 135.6226 0067509 286.9148 225.6931 14.03971239980398
FENGYUN 1C DEB          
1 30703U 99025ARM 26116.49247476  .00001981  00000+0  89367-3 0  9991
2 30703  99.1541 110.9869 0114707 268.6943 247.0921 14.19978908984525
FENGYUN 1C DEB          
1 30704U 99025ARN 26115.95847416  .00000250  00000+0  18533-3 0  9997
2 30704  98.8762 116.1822 0082300  86.0032 341.1686 14.02152681979924
FENGYUN 1C DEB          
1 30705U 99025ARP 26116.38425985  .00001787  00000+0  14924-2 0  9994
2 30705 102.1848 264.3665 0194549 322.9547  61.4844 13.82098657958690
FENGYUN 1C DEB          
1 30706U 99025ARQ 26115.66475449  .00001303  00000+0  55261-3 0  9999
2 30706  99.0578  19.9843 0027423 102.4383 257.9867 14.26997538995370
FENGYUN 1C DEB          
1 30707U 99025ARR 26115.46073703  .00002677  00000+0  11026-2 0  9990
2 30707  99.3980 184.8519 0027250  52.2987  69.7493 14.27622597987100
FENGYUN 1C DEB          
1 30708U 99025ARS 26116.51724436  .00000202  00000+0  13305-3 0  9999
2 30708  98.6845 131.0227 0008552 169.3529 342.9029 14.12263001987385
FENGYUN 1C DEB          
1 30709U 99025ART 26116.40744325  .00004171  00000+0  19634-2 0  9996
2 30709  99.1541 103.4896 0079629 247.0800 112.1956 14.18848832979057
FENGYUN 1C DEB          
1 30710U 99025ARU 26115.62493118  .00002976  00000+0  18310-2 0  9993
2 30710 102.7474  60.3581 0221534 126.7147  49.0935 13.95388805966557
FENGYUN 1C DEB          
1 30714U 99025ARY 26115.79887934  .00000731  00000+0  48504-3 0  9994
2 30714  98.8164 165.3917 0064782 268.5706 156.5728 14.03531097978737
FENGYUN 1C DEB          
1 30715U 99025ARZ 26115.76015468  .00002546  00000+0  12944-2 0  9991
2 30715  98.9619 190.6615 0067903 147.6106 212.9263 14.15573157980773
FENGYUN 1C DEB          
1 30716U 99025ASA 26116.52254523  .00036344  00000+0  38845-2 0  9995
2 30716  98.8704 319.5893 0017629  23.8250   8.9340 14.88539765998239
FENGYUN 1C DEB          
1 30717U 99025ASB 26115.70018327  .00002333  00000+0  10771-2 0  9994
2 30717  99.0048 194.1072 0046383 233.2520 126.4393 14.21421147984393
FENGYUN 1C DEB          
1 30718U 99025ASC 26115.67879583  .00003259  00000+0  13784-2 0  9995
2 30718  98.8804 202.6871 0058503 130.5952 230.0338 14.25284753986812
FENGYUN 1C DEB          
1 30719U 99025ASD 26116.38436140  .00019442  00000+0  36724-2 0  9993
2 30719  98.8917 273.2456 0011695 140.7441 219.4609 14.64417696994164
FENGYUN 1C DEB          
1 30720U 99025ASE 26115.28313383  .00001511  00000+0  60519-3 0  9994
2 30720  99.0454 298.7588 0030606 303.0301 235.6640 14.29654963993968
